[{"OBJECT_NAME":"STARLINK-36450","OBJECT_ID":"2026-002N","EPOCH":"2026-03-09T10:05:21.811776","MEAN_MOTION":15.27591291,"ECCENTRICITY":8.244e-5,"INCLINATION":43.0057,"RA_OF_ASC_NODE":327.1425,"ARG_OF_PERICENTER":300.9814,"MEAN_ANOMALY":59.0957,"EPHEMERIS_TYPE":0,"CLASSIFICATION_TYPE":"U","NORAD_CAT_ID":67317,"ELEMENT_SET_NO":999,"REV_AT_EPOCH":1119,"BSTAR":0.0011516158,"MEAN_MOTION_DOT":0.00031574,"MEAN_MOTION_DDOT":0},{"OBJECT_NAME":"SIMSAT 1","OBJECT_ID":"2000-026A","EPOCH":"2026-03-09T17:22:54.646176","MEAN_MOTION":15.27666538,"ECCENTRICITY":0.00084816,"INCLINATION":86.3501,"RA_OF_ASC_NODE":180.5413,"ARG_OF_PERICENTER":14.8337,"MEAN_ANOMALY":345.3157,"EPHEMERIS_TYPE":0,"CLASSIFICATION_TYPE":"U","NORAD_CAT_ID":26365,"ELEMENT_SET_NO":999,"REV_AT_EPOCH":42720,"BSTAR":0.00013499313,"MEAN_MOTION_DOT":3.69e-5,"MEAN_MOTION_DDOT":0}]
